ONEWEB-0033             
1 45142U 20008M   26127.27793960  .00000134  00000+0  34655-3 0  9990
2 45142  87.8858  44.4192 0001586  63.8058 296.3232 13.10377512302851
ONEWEB-0035             
1 45143U 20008N   26127.22799146  .00000521  00000+0  14467-2 0  9996
2 45143  87.8850  44.4252 0001809  75.0528 285.0800 13.10883280302575
ONEWEB-0036             
1 45144U 20008P   26127.25703566 -.00000619  00000+0 -18253-2 0  9998
2 45144  87.8869  44.4142 0001967  84.9066 275.2285 13.09819838303008
ONEWEB-0038             
1 45145U 20008Q   26127.27380030  .00000018  00000+0  14114-4 0  9993
2 45145  87.8935  29.2075 0003192  53.7900 306.3523 13.11417089304964
ONEWEB-0039             
1 45146U 20008R   26127.28125970  .00000301  00000+0  82532-3 0  9998
2 45146  87.8862  44.4076 0002287  84.7338 275.4051 13.10375952302801
ONEWEB-0040             
1 45147U 20008S   26127.27461202 -.00000041  00000+0 -15300-3 0  9991
2 45147  87.8856  44.4209 0001913  76.0775 284.0565 13.10376723302507
ONEWEB-0043             
1 45149U 20008U   26127.27627059  .00000030  00000+0  48510-4 0  9993
2 45149  87.8860  44.4068 0002401  86.2445 273.8957 13.10376735302826
ONEWEB-0044             
1 45150U 20008V   26127.22814944  .00000552  00000+0  15444-2 0  9998
2 45150  87.8860  44.4147 0002072  80.8127 279.3235 13.10371879303114
ONEWEB-0045             
1 45151U 20008W   26127.26857770  .00000232  00000+0  61861-3 0  9997
2 45151  87.8926  29.1938 0001938  79.6104 280.5242 13.11417830305042
ONEWEB-0047             
1 45152U 20008X   26127.22150686  .00000762  00000+0  21456-2 0  9999
2 45152  87.8859  44.4160 0001875  73.5768 286.5566 13.10373232302839
ONEWEB-0048             
1 45153U 20008Y   26127.21652814  .00000791  00000+0  22303-2 0  9993
2 45153  87.8854  44.4408 0001895  75.5139 284.6198 13.10373625302449
ONEWEB-0049             
1 45154U 20008Z   26127.21971297  .00000777  00000+0  21887-2 0  9993
2 45154  87.8855  44.4286 0001804  92.3586 267.7748 13.10373504302661
ONEWEB-0051             
1 45155U 20008AA  26127.26689307  .00000390  00000+0  10658-2 0  9992
2 45155  87.8922  29.2037 0001869  76.3407 283.7929 13.11414452305725
ONEWEB-0052             
1 45156U 20008AB  26127.23989820 -.00000029  00000+0 -11793-3 0  9996
2 45156  87.8855  44.4103 0001853  93.4032 266.7307 13.10370152302579
ONEWEB-0053             
1 45157U 20008AC  26127.27295094 -.00000054  00000+0 -19049-3 0  9994
2 45157  87.8857  44.4266 0002210  89.6183 270.5198 13.10377359302559
ONEWEB-0054             
1 45158U 20008AD  26127.23146205  .00000465  00000+0  12951-2 0  9998
2 45158  87.8860  44.4141 0001828  80.3372 279.7962 13.10370635302660
