[{"OBJECT_NAME":"ONEWEB-0033","OBJECT_ID":"2020-008M","EPOCH":"2026-05-07T06:40:13.981440","MEAN_MOTION":13.10377512,"ECCENTRICITY":0.0001586,"INCLINATION":87.8858,"RA_OF_ASC_NODE":44.4192,"ARG_OF_PERICENTER":63.8058,"MEAN_ANOMALY":296.3232,"EPHEMERIS_TYPE":0,"CLASSIFICATION_TYPE":"U","NORAD_CAT_ID":45142,"ELEMENT_SET_NO":999,"REV_AT_EPOCH":30285,"BSTAR":0.00034655000000000005,"MEAN_MOTION_DOT":1.34e-06,"MEAN_MOTION_DDOT":0.0},{"OBJECT_NAME":"ONEWEB-0035","OBJECT_ID":"2020-008N","EPOCH":"2026-05-07T05:28:18.462144","MEAN_MOTION":13.1088328,"ECCENTRICITY":0.0001809,"INCLINATION":87.885,"RA_OF_ASC_NODE":44.4252,"ARG_OF_PERICENTER":75.0528,"MEAN_ANOMALY":285.08,"EPHEMERIS_TYPE":0,"CLASSIFICATION_TYPE":"U","NORAD_CAT_ID":45143,"ELEMENT_SET_NO":999,"REV_AT_EPOCH":30257,"BSTAR":0.0014467,"MEAN_MOTION_DOT":5.21e-06,"MEAN_MOTION_DDOT":0.0},{"OBJECT_NAME":"ONEWEB-0036","OBJECT_ID":"2020-008P","EPOCH":"2026-05-07T06:10:07.881024","MEAN_MOTION":13.09819838,"ECCENTRICITY":0.0001967,"INCLINATION":87.8869,"RA_OF_ASC_NODE":44.4142,"ARG_OF_PERICENTER":84.9066,"MEAN_ANOMALY":275.2285,"EPHEMERIS_TYPE":0,"CLASSIFICATION_TYPE":"U","NORAD_CAT_ID":45144,"ELEMENT_SET_NO":999,"REV_AT_EPOCH":30300,"BSTAR":-0.0018253,"MEAN_MOTION_DOT":-6.19e-06,"MEAN_MOTION_DDOT":0.0},{"OBJECT_NAME":"ONEWEB-0038","OBJECT_ID":"2020-008Q","EPOCH":"2026-05-07T06:34:16.345920","MEAN_MOTION":13.11417089,"ECCENTRICITY":0.0003192,"INCLINATION":87.8935,"RA_OF_ASC_NODE":29.2075,"ARG_OF_PERICENTER":53.79,"MEAN_ANOMALY":306.3523,"EPHEMERIS_TYPE":0,"CLASSIFICATION_TYPE":"U","NORAD_CAT_ID":45145,"ELEMENT_SET_NO":999,"REV_AT_EPOCH":30496,"BSTAR":1.4113999999999999e-05,"MEAN_MOTION_DOT":1.8e-07,"MEAN_MOTION_DDOT":0.0},{"OBJECT_NAME":"ONEWEB-0039","OBJECT_ID":"2020-008R","EPOCH":"2026-05-07T06:45:00.838080","MEAN_MOTION":13.10375952,"ECCENTRICITY":0.0002287,"INCLINATION":87.8862,"RA_OF_ASC_NODE":44.4076,"ARG_OF_PERICENTER":84.7338,"MEAN_ANOMALY":275.4051,"EPHEMERIS_TYPE":0,"CLASSIFICATION_TYPE":"U","NORAD_CAT_ID":45146,"ELEMENT_SET_NO":999,"REV_AT_EPOCH":30280,"BSTAR":0.00082532,"MEAN_MOTION_DOT":3.01e-06,"MEAN_MOTION_DDOT":0.0},{"OBJECT_NAME":"ONEWEB-0040","OBJECT_ID":"2020-008S","EPOCH":"2026-05-07T06:35:26.478528","MEAN_MOTION":13.10376723,"ECCENTRICITY":0.0001913,"INCLINATION":87.8856,"RA_OF_ASC_NODE":44.4209,"ARG_OF_PERICENTER":76.0775,"MEAN_ANOMALY":284.0565,"EPHEMERIS_TYPE":0,"CLASSIFICATION_TYPE":"U","NORAD_CAT_ID":45147,"ELEMENT_SET_NO":999,"REV_AT_EPOCH":30250,"BSTAR":-0.000153,"MEAN_MOTION_DOT":-4.1e-07,"MEAN_MOTION_DDOT":0.0},{"OBJECT_NAME":"ONEWEB-0043","OBJECT_ID":"2020-008U","EPOCH":"2026-05-07T06:37:49.778976","MEAN_MOTION":13.10376735,"ECCENTRICITY":0.0002401,"INCLINATION":87.886,"RA_OF_ASC_NODE":44.4068,"ARG_OF_PERICENTER":86.2445,"MEAN_ANOMALY":273.8957,"EPHEMERIS_TYPE":0,"CLASSIFICATION_TYPE":"U","NORAD_CAT_ID":45149,"ELEMENT_SET_NO":999,"REV_AT_EPOCH":30282,"BSTAR":4.851e-05,"MEAN_MOTION_DOT":3e-07,"MEAN_MOTION_DDOT":0.0},{"OBJECT_NAME":"ONEWEB-0044","OBJECT_ID":"2020-008V","EPOCH":"2026-05-07T05:28:32.111616","MEAN_MOTION":13.10371879,"ECCENTRICITY":0.0002072,"INCLINATION":87.886,"RA_OF_ASC_NODE":44.4147,"ARG_OF_PERICENTER":80.8127,"MEAN_ANOMALY":279.3235,"EPHEMERIS_TYPE":0,"CLASSIFICATION_TYPE":"U","NORAD_CAT_ID":45150,"ELEMENT_SET_NO":999,"REV_AT_EPOCH":30311,"BSTAR":0.0015444,"MEAN_MOTION_DOT":5.52e-06,"MEAN_MOTION_DDOT":0.0},{"OBJECT_NAME":"ONEWEB-0045","OBJECT_ID":"2020-008W","EPOCH":"2026-05-07T06:26:45.113280","MEAN_MOTION":13.1141783,"ECCENTRICITY":0.0001938,"INCLINATION":87.8926,"RA_OF_ASC_NODE":29.1938,"ARG_OF_PERICENTER":79.6104,"MEAN_ANOMALY":280.5242,"EPHEMERIS_TYPE":0,"CLASSIFICATION_TYPE":"U","NORAD_CAT_ID":45151,"ELEMENT_SET_NO":999,"REV_AT_EPOCH":30504,"BSTAR":0.00061861,"MEAN_MOTION_DOT":2.32e-06,"MEAN_MOTION_DDOT":0.0},{"OBJECT_NAME":"ONEWEB-0047","OBJECT_ID":"2020-008X","EPOCH":"2026-05-07T05:18:58.192704","MEAN_MOTION":13.10373232,"ECCENTRICITY":0.0001875,"INCLINATION":87.8859,"RA_OF_ASC_NODE":44.416,"ARG_OF_PERICENTER":73.5768,"MEAN_ANOMALY":286.5566,"EPHEMERIS_TYPE":0,"CLASSIFICATION_TYPE":"U","NORAD_CAT_ID":45152,"ELEMENT_SET_NO":999,"REV_AT_EPOCH":30283,"BSTAR":0.0021456,"MEAN_MOTION_DOT":7.62e-06,"MEAN_MOTION_DDOT":0.0},{"OBJECT_NAME":"ONEWEB-0048","OBJECT_ID":"2020-008Y","EPOCH":"2026-05-07T05:11:48.031296","MEAN_MOTION":13.10373625,"ECCENTRICITY":0.0001895,"INCLINATION":87.8854,"RA_OF_ASC_NODE":44.4408,"ARG_OF_PERICENTER":75.5139,"MEAN_ANOMALY":284.6198,"EPHEMERIS_TYPE":0,"CLASSIFICATION_TYPE":"U","NORAD_CAT_ID":45153,"ELEMENT_SET_NO":999,"REV_AT_EPOCH":30244,"BSTAR":0.0022303,"MEAN_MOTION_DOT":7.91e-06,"MEAN_MOTION_DDOT":0.0},{"OBJECT_NAME":"ONEWEB-0049","OBJECT_ID":"2020-008Z","EPOCH":"2026-05-07T05:16:23.200608","MEAN_MOTION":13.10373504,"ECCENTRICITY":0.0001804,"INCLINATION":87.8855,"RA_OF_ASC_NODE":44.4286,"ARG_OF_PERICENTER":92.3586,"MEAN_ANOMALY":267.7748,"EPHEMERIS_TYPE":0,"CLASSIFICATION_TYPE":"U","NORAD_CAT_ID":45154,"ELEMENT_SET_NO":999,"REV_AT_EPOCH":30266,"BSTAR":0.0021887,"MEAN_MOTION_DOT":7.77e-06,"MEAN_MOTION_DDOT":0.0},{"OBJECT_NAME":"ONEWEB-0051","OBJECT_ID":"2020-008AA","EPOCH":"2026-05-07T06:24:19.561248","MEAN_MOTION":13.11414452,"ECCENTRICITY":0.0001869,"INCLINATION":87.8922,"RA_OF_ASC_NODE":29.2037,"ARG_OF_PERICENTER":76.3407,"MEAN_ANOMALY":283.7929,"EPHEMERIS_TYPE":0,"CLASSIFICATION_TYPE":"U","NORAD_CAT_ID":45155,"ELEMENT_SET_NO":999,"REV_AT_EPOCH":30572,"BSTAR":0.0010658,"MEAN_MOTION_DOT":3.9e-06,"MEAN_MOTION_DDOT":0.0},{"OBJECT_NAME":"ONEWEB-0052","OBJECT_ID":"2020-008AB","EPOCH":"2026-05-07T05:45:27.204480","MEAN_MOTION":13.10370152,"ECCENTRICITY":0.0001853,"INCLINATION":87.8855,"RA_OF_ASC_NODE":44.4103,"ARG_OF_PERICENTER":93.4032,"MEAN_ANOMALY":266.7307,"EPHEMERIS_TYPE":0,"CLASSIFICATION_TYPE":"U","NORAD_CAT_ID":45156,"ELEMENT_SET_NO":999,"REV_AT_EPOCH":30257,"BSTAR":-0.00011792999999999999,"MEAN_MOTION_DOT":-2.9e-07,"MEAN_MOTION_DDOT":0.0},{"OBJECT_NAME":"ONEWEB-0053","OBJECT_ID":"2020-008AC","EPOCH":"2026-05-07T06:33:02.961216","MEAN_MOTION":13.10377359,"ECCENTRICITY":0.000221,"INCLINATION":87.8857,"RA_OF_ASC_NODE":44.4266,"ARG_OF_PERICENTER":89.6183,"MEAN_ANOMALY":270.5198,"EPHEMERIS_TYPE":0,"CLASSIFICATION_TYPE":"U","NORAD_CAT_ID":45157,"ELEMENT_SET_NO":999,"REV_AT_EPOCH":30255,"BSTAR":-0.00019049,"MEAN_MOTION_DOT":-5.4e-07,"MEAN_MOTION_DDOT":0.0},{"OBJECT_NAME":"ONEWEB-0054","OBJECT_ID":"2020-008AD","EPOCH":"2026-05-07T05:33:18.321120","MEAN_MOTION":13.10370635,"ECCENTRICITY":0.0001828,"INCLINATION":87.886,"RA_OF_ASC_NODE":44.4141,"ARG_OF_PERICENTER":80.3372,"MEAN_ANOMALY":279.7962,"EPHEMERIS_TYPE":0,"CLASSIFICATION_TYPE":"U","NORAD_CAT_ID":45158,"ELEMENT_SET_NO":999,"REV_AT_EPOCH":30266,"BSTAR":0.0012951,"MEAN_MOTION_DOT":4.65e-06,"MEAN_MOTION_DDOT":0.0}]